<?xml version="1.0"?>
<gpx xmlns="http://www.topografix.com/GPX/1/1" xmlns:xsi="http://www.w3.org/2001/XMLSchema-instance" version="1.1" creator="AllTrails.com" xsi:schemaLocation="http://www.topografix.com/GPX/1/1 http://www.topografix.com/GPX/1/1/gpx.xsd">
  <metadata>
    <name><![CDATA[Viper's Peak Trail]]></name>
    <desc><![CDATA[]]></desc>
    <link href="http://www.alltrails.com">
      <text>AllTrails, LLC</text>
    </link>
    <bounds minlat="7.03337" minlon="125.44619" maxlat="7.03909" maxlon="125.46065"/>
  </metadata>
  <trk>
    <name><![CDATA[Viper's Peak Trail]]></name>
    <src>AllTrails</src>
    <trkseg>
      <trkpt lat="7.03337" lon="125.46065">
        <ele>145.0</ele>
      </trkpt>
      <trkpt lat="7.03337" lon="125.46062">
        <ele>144.47</ele>
      </trkpt>
      <trkpt lat="7.03338" lon="125.4606">
        <ele>143.93</ele>
      </trkpt>
      <trkpt lat="7.03338" lon="125.46055">
        <ele>143.21</ele>
      </trkpt>
      <trkpt lat="7.03341" lon="125.4605">
        <ele>143.05</ele>
      </trkpt>
      <trkpt lat="7.03343" lon="125.46044">
        <ele>143.07</ele>
      </trkpt>
      <trkpt lat="7.03346" lon="125.46039">
        <ele>142.69</ele>
      </trkpt>
      <trkpt lat="7.03349" lon="125.46034">
        <ele>142.2</ele>
      </trkpt>
      <trkpt lat="7.03352" lon="125.46029">
        <ele>141.58</ele>
      </trkpt>
      <trkpt lat="7.03356" lon="125.46024">
        <ele>141.35</ele>
      </trkpt>
      <trkpt lat="7.03359" lon="125.46019">
        <ele>141.75</ele>
      </trkpt>
      <trkpt lat="7.03363" lon="125.46014">
        <ele>142.07</ele>
      </trkpt>
      <trkpt lat="7.03367" lon="125.46009">
        <ele>142.31</ele>
      </trkpt>
      <trkpt lat="7.03371" lon="125.46004">
        <ele>142.35</ele>
      </trkpt>
      <trkpt lat="7.03374" lon="125.46">
        <ele>142.29</ele>
      </trkpt>
      <trkpt lat="7.0338" lon="125.45995">
        <ele>141.52</ele>
      </trkpt>
      <trkpt lat="7.03382" lon="125.45992">
        <ele>141.57</ele>
      </trkpt>
      <trkpt lat="7.03382" lon="125.45989">
        <ele>142.16</ele>
      </trkpt>
      <trkpt lat="7.03382" lon="125.45989">
        <ele>142.16</ele>
      </trkpt>
      <trkpt lat="7.03383" lon="125.45987">
        <ele>142.31</ele>
      </trkpt>
      <trkpt lat="7.03384" lon="125.45983">
        <ele>142.86</ele>
      </trkpt>
      <trkpt lat="7.03386" lon="125.45977">
        <ele>143.63</ele>
      </trkpt>
      <trkpt lat="7.03389" lon="125.45973">
        <ele>143.83</ele>
      </trkpt>
      <trkpt lat="7.03392" lon="125.45968">
        <ele>144.74</ele>
      </trkpt>
      <trkpt lat="7.03395" lon="125.45958">
        <ele>146.45</ele>
      </trkpt>
      <trkpt lat="7.03398" lon="125.45952">
        <ele>147.4</ele>
      </trkpt>
      <trkpt lat="7.03399" lon="125.45948">
        <ele>148.04</ele>
      </trkpt>
      <trkpt lat="7.03401" lon="125.45944">
        <ele>148.67</ele>
      </trkpt>
      <trkpt lat="7.03402" lon="125.45939">
        <ele>149.88</ele>
      </trkpt>
      <trkpt lat="7.03404" lon="125.45932">
        <ele>151.67</ele>
      </trkpt>
      <trkpt lat="7.03406" lon="125.4593">
        <ele>152.27</ele>
      </trkpt>
      <trkpt lat="7.03408" lon="125.45924">
        <ele>154.02</ele>
      </trkpt>
      <trkpt lat="7.03417" lon="125.45907">
        <ele>159.78</ele>
      </trkpt>
      <trkpt lat="7.03417" lon="125.45906">
        <ele>160.07</ele>
      </trkpt>
      <trkpt lat="7.03419" lon="125.45902">
        <ele>161.27</ele>
      </trkpt>
      <trkpt lat="7.03427" lon="125.45895">
        <ele>163.74</ele>
      </trkpt>
      <trkpt lat="7.03431" lon="125.45889">
        <ele>165.99</ele>
      </trkpt>
      <trkpt lat="7.03432" lon="125.45885">
        <ele>167.77</ele>
      </trkpt>
      <trkpt lat="7.03432" lon="125.4588">
        <ele>169.91</ele>
      </trkpt>
      <trkpt lat="7.03434" lon="125.45873">
        <ele>172.97</ele>
      </trkpt>
      <trkpt lat="7.03434" lon="125.45869">
        <ele>174.66</ele>
      </trkpt>
      <trkpt lat="7.03435" lon="125.45864">
        <ele>176.79</ele>
      </trkpt>
      <trkpt lat="7.03437" lon="125.45858">
        <ele>179.03</ele>
      </trkpt>
      <trkpt lat="7.03437" lon="125.45855">
        <ele>180.02</ele>
      </trkpt>
      <trkpt lat="7.03438" lon="125.45852">
        <ele>181.05</ele>
      </trkpt>
      <trkpt lat="7.03438" lon="125.45849">
        <ele>182.06</ele>
      </trkpt>
      <trkpt lat="7.03439" lon="125.45846">
        <ele>183.12</ele>
      </trkpt>
      <trkpt lat="7.03439" lon="125.4584">
        <ele>185.15</ele>
      </trkpt>
      <trkpt lat="7.0344" lon="125.45836">
        <ele>186.61</ele>
      </trkpt>
      <trkpt lat="7.0344" lon="125.45832">
        <ele>187.9</ele>
      </trkpt>
      <trkpt lat="7.03441" lon="125.45828">
        <ele>189.16</ele>
      </trkpt>
      <trkpt lat="7.03442" lon="125.45825">
        <ele>190.14</ele>
      </trkpt>
      <trkpt lat="7.03442" lon="125.45823">
        <ele>190.71</ele>
      </trkpt>
      <trkpt lat="7.03442" lon="125.45822">
        <ele>191.0</ele>
      </trkpt>
      <trkpt lat="7.03442" lon="125.45822">
        <ele>191.0</ele>
      </trkpt>
      <trkpt lat="7.03443" lon="125.45821">
        <ele>191.4</ele>
      </trkpt>
      <trkpt lat="7.03444" lon="125.45819">
        <ele>192.08</ele>
      </trkpt>
      <trkpt lat="7.03445" lon="125.45814">
        <ele>193.51</ele>
      </trkpt>
      <trkpt lat="7.03446" lon="125.45808">
        <ele>195.09</ele>
      </trkpt>
      <trkpt lat="7.03447" lon="125.45802">
        <ele>196.13</ele>
      </trkpt>
      <trkpt lat="7.03448" lon="125.45797">
        <ele>196.68</ele>
      </trkpt>
      <trkpt lat="7.0345" lon="125.45791">
        <ele>197.19</ele>
      </trkpt>
      <trkpt lat="7.03452" lon="125.45786">
        <ele>197.54</ele>
      </trkpt>
      <trkpt lat="7.03454" lon="125.4578">
        <ele>197.99</ele>
      </trkpt>
      <trkpt lat="7.03455" lon="125.45774">
        <ele>198.48</ele>
      </trkpt>
      <trkpt lat="7.03456" lon="125.45768">
        <ele>198.92</ele>
      </trkpt>
      <trkpt lat="7.03457" lon="125.45762">
        <ele>199.39</ele>
      </trkpt>
      <trkpt lat="7.03461" lon="125.45759">
        <ele>199.18</ele>
      </trkpt>
      <trkpt lat="7.03466" lon="125.45758">
        <ele>198.65</ele>
      </trkpt>
      <trkpt lat="7.03472" lon="125.45757">
        <ele>198.02</ele>
      </trkpt>
      <trkpt lat="7.03478" lon="125.45756">
        <ele>196.84</ele>
      </trkpt>
      <trkpt lat="7.03482" lon="125.45753">
        <ele>196.42</ele>
      </trkpt>
      <trkpt lat="7.03482" lon="125.45753">
        <ele>196.42</ele>
      </trkpt>
      <trkpt lat="7.03483" lon="125.45752">
        <ele>196.36</ele>
      </trkpt>
      <trkpt lat="7.03489" lon="125.4575">
        <ele>195.38</ele>
      </trkpt>
      <trkpt lat="7.03494" lon="125.45746">
        <ele>194.73</ele>
      </trkpt>
      <trkpt lat="7.035" lon="125.45747">
        <ele>193.32</ele>
      </trkpt>
      <trkpt lat="7.03506" lon="125.45746">
        <ele>191.12</ele>
      </trkpt>
      <trkpt lat="7.03512" lon="125.45746">
        <ele>188.8</ele>
      </trkpt>
      <trkpt lat="7.03518" lon="125.45746">
        <ele>186.49</ele>
      </trkpt>
      <trkpt lat="7.03524" lon="125.45744">
        <ele>184.52</ele>
      </trkpt>
      <trkpt lat="7.03525" lon="125.45744">
        <ele>184.14</ele>
      </trkpt>
      <trkpt lat="7.03525" lon="125.45744">
        <ele>184.14</ele>
      </trkpt>
      <trkpt lat="7.0353" lon="125.45743">
        <ele>182.52</ele>
      </trkpt>
      <trkpt lat="7.03535" lon="125.45741">
        <ele>181.2</ele>
      </trkpt>
      <trkpt lat="7.03539" lon="125.45736">
        <ele>180.68</ele>
      </trkpt>
      <trkpt lat="7.0354" lon="125.45733">
        <ele>180.83</ele>
      </trkpt>
      <trkpt lat="7.03542" lon="125.4573">
        <ele>180.62</ele>
      </trkpt>
      <trkpt lat="7.03546" lon="125.45726">
        <ele>179.85</ele>
      </trkpt>
      <trkpt lat="7.03548" lon="125.4572">
        <ele>180.46</ele>
      </trkpt>
      <trkpt lat="7.03552" lon="125.45715">
        <ele>180.65</ele>
      </trkpt>
      <trkpt lat="7.03554" lon="125.45713">
        <ele>180.57</ele>
      </trkpt>
      <trkpt lat="7.03555" lon="125.45712">
        <ele>180.52</ele>
      </trkpt>
      <trkpt lat="7.03556" lon="125.45711">
        <ele>180.62</ele>
      </trkpt>
      <trkpt lat="7.0356" lon="125.45706">
        <ele>181.98</ele>
      </trkpt>
      <trkpt lat="7.03564" lon="125.45701">
        <ele>183.18</ele>
      </trkpt>
      <trkpt lat="7.03568" lon="125.45696">
        <ele>184.23</ele>
      </trkpt>
      <trkpt lat="7.03572" lon="125.45691">
        <ele>184.85</ele>
      </trkpt>
      <trkpt lat="7.03576" lon="125.45687">
        <ele>184.95</ele>
      </trkpt>
      <trkpt lat="7.03579" lon="125.45682">
        <ele>185.16</ele>
      </trkpt>
      <trkpt lat="7.03582" lon="125.45676">
        <ele>185.3</ele>
      </trkpt>
      <trkpt lat="7.03587" lon="125.45672">
        <ele>185.5</ele>
      </trkpt>
      <trkpt lat="7.03587" lon="125.45666">
        <ele>186.18</ele>
      </trkpt>
      <trkpt lat="7.03588" lon="125.4566">
        <ele>187.76</ele>
      </trkpt>
      <trkpt lat="7.03591" lon="125.45655">
        <ele>188.9</ele>
      </trkpt>
      <trkpt lat="7.03596" lon="125.45651">
        <ele>189.48</ele>
      </trkpt>
      <trkpt lat="7.03602" lon="125.45648">
        <ele>189.57</ele>
      </trkpt>
      <trkpt lat="7.03606" lon="125.45648">
        <ele>189.18</ele>
      </trkpt>
      <trkpt lat="7.03607" lon="125.45648">
        <ele>189.09</ele>
      </trkpt>
      <trkpt lat="7.03609" lon="125.45648">
        <ele>188.89</ele>
      </trkpt>
      <trkpt lat="7.03612" lon="125.45649">
        <ele>188.56</ele>
      </trkpt>
      <trkpt lat="7.03617" lon="125.45653">
        <ele>188.08</ele>
      </trkpt>
      <trkpt lat="7.03624" lon="125.45658">
        <ele>187.57</ele>
      </trkpt>
      <trkpt lat="7.03627" lon="125.4566">
        <ele>187.39</ele>
      </trkpt>
      <trkpt lat="7.0363" lon="125.45661">
        <ele>187.36</ele>
      </trkpt>
      <trkpt lat="7.03632" lon="125.45663">
        <ele>187.18</ele>
      </trkpt>
      <trkpt lat="7.03637" lon="125.45664">
        <ele>187.23</ele>
      </trkpt>
      <trkpt lat="7.03638" lon="125.45664">
        <ele>187.26</ele>
      </trkpt>
      <trkpt lat="7.03644" lon="125.45665">
        <ele>187.5</ele>
      </trkpt>
      <trkpt lat="7.03647" lon="125.45664">
        <ele>187.76</ele>
      </trkpt>
      <trkpt lat="7.03654" lon="125.45662">
        <ele>188.23</ele>
      </trkpt>
      <trkpt lat="7.0366" lon="125.45663">
        <ele>188.51</ele>
      </trkpt>
      <trkpt lat="7.03664" lon="125.45663">
        <ele>188.73</ele>
      </trkpt>
      <trkpt lat="7.03667" lon="125.45663">
        <ele>188.94</ele>
      </trkpt>
      <trkpt lat="7.03673" lon="125.45662">
        <ele>190.16</ele>
      </trkpt>
      <trkpt lat="7.03681" lon="125.45661">
        <ele>191.79</ele>
      </trkpt>
      <trkpt lat="7.03688" lon="125.45662">
        <ele>193.31</ele>
      </trkpt>
      <trkpt lat="7.03693" lon="125.45663">
        <ele>194.43</ele>
      </trkpt>
      <trkpt lat="7.03695" lon="125.45662">
        <ele>194.49</ele>
      </trkpt>
      <trkpt lat="7.03697" lon="125.4566">
        <ele>193.78</ele>
      </trkpt>
      <trkpt lat="7.03698" lon="125.45658">
        <ele>193.42</ele>
      </trkpt>
      <trkpt lat="7.03698" lon="125.4565">
        <ele>193.13</ele>
      </trkpt>
      <trkpt lat="7.03698" lon="125.45641">
        <ele>192.82</ele>
      </trkpt>
      <trkpt lat="7.03699" lon="125.45638">
        <ele>192.44</ele>
      </trkpt>
      <trkpt lat="7.03699" lon="125.45633">
        <ele>191.12</ele>
      </trkpt>
      <trkpt lat="7.03699" lon="125.45629">
        <ele>190.07</ele>
      </trkpt>
      <trkpt lat="7.03702" lon="125.45622">
        <ele>187.48</ele>
      </trkpt>
      <trkpt lat="7.03706" lon="125.45616">
        <ele>184.48</ele>
      </trkpt>
      <trkpt lat="7.03711" lon="125.45606">
        <ele>181.41</ele>
      </trkpt>
      <trkpt lat="7.03715" lon="125.45594">
        <ele>180.83</ele>
      </trkpt>
      <trkpt lat="7.03715" lon="125.45591">
        <ele>181.05</ele>
      </trkpt>
      <trkpt lat="7.03717" lon="125.45585">
        <ele>180.76</ele>
      </trkpt>
      <trkpt lat="7.03718" lon="125.4558">
        <ele>181.31</ele>
      </trkpt>
      <trkpt lat="7.03718" lon="125.45576">
        <ele>182.25</ele>
      </trkpt>
      <trkpt lat="7.03719" lon="125.45571">
        <ele>183.11</ele>
      </trkpt>
      <trkpt lat="7.03719" lon="125.45566">
        <ele>184.31</ele>
      </trkpt>
      <trkpt lat="7.0372" lon="125.45562">
        <ele>184.99</ele>
      </trkpt>
      <trkpt lat="7.03719" lon="125.45559">
        <ele>185.99</ele>
      </trkpt>
      <trkpt lat="7.0372" lon="125.45555">
        <ele>186.52</ele>
      </trkpt>
      <trkpt lat="7.0372" lon="125.45546">
        <ele>185.93</ele>
      </trkpt>
      <trkpt lat="7.03721" lon="125.45543">
        <ele>185.44</ele>
      </trkpt>
      <trkpt lat="7.03721" lon="125.45533">
        <ele>184.76</ele>
      </trkpt>
      <trkpt lat="7.03722" lon="125.4553">
        <ele>184.23</ele>
      </trkpt>
      <trkpt lat="7.03722" lon="125.45523">
        <ele>185.95</ele>
      </trkpt>
      <trkpt lat="7.03725" lon="125.45514">
        <ele>189.01</ele>
      </trkpt>
      <trkpt lat="7.03725" lon="125.4551">
        <ele>190.52</ele>
      </trkpt>
      <trkpt lat="7.03726" lon="125.45507">
        <ele>191.45</ele>
      </trkpt>
      <trkpt lat="7.03726" lon="125.45504">
        <ele>192.56</ele>
      </trkpt>
      <trkpt lat="7.03727" lon="125.45501">
        <ele>193.43</ele>
      </trkpt>
      <trkpt lat="7.03728" lon="125.45496">
        <ele>195.05</ele>
      </trkpt>
      <trkpt lat="7.03729" lon="125.45492">
        <ele>196.38</ele>
      </trkpt>
      <trkpt lat="7.0373" lon="125.45484">
        <ele>199.35</ele>
      </trkpt>
      <trkpt lat="7.03731" lon="125.45477">
        <ele>202.07</ele>
      </trkpt>
      <trkpt lat="7.03732" lon="125.45469">
        <ele>204.76</ele>
      </trkpt>
      <trkpt lat="7.03734" lon="125.45464">
        <ele>205.87</ele>
      </trkpt>
      <trkpt lat="7.03734" lon="125.45461">
        <ele>206.55</ele>
      </trkpt>
      <trkpt lat="7.03735" lon="125.45457">
        <ele>207.38</ele>
      </trkpt>
      <trkpt lat="7.03738" lon="125.45449">
        <ele>208.79</ele>
      </trkpt>
      <trkpt lat="7.03738" lon="125.45441">
        <ele>210.17</ele>
      </trkpt>
      <trkpt lat="7.03736" lon="125.45434">
        <ele>211.33</ele>
      </trkpt>
      <trkpt lat="7.03736" lon="125.45431">
        <ele>211.71</ele>
      </trkpt>
      <trkpt lat="7.03738" lon="125.45423">
        <ele>212.48</ele>
      </trkpt>
      <trkpt lat="7.03738" lon="125.45413">
        <ele>213.22</ele>
      </trkpt>
      <trkpt lat="7.03739" lon="125.45406">
        <ele>212.96</ele>
      </trkpt>
      <trkpt lat="7.0374" lon="125.45401">
        <ele>212.72</ele>
      </trkpt>
      <trkpt lat="7.03741" lon="125.45398">
        <ele>212.52</ele>
      </trkpt>
      <trkpt lat="7.03743" lon="125.45394">
        <ele>212.15</ele>
      </trkpt>
      <trkpt lat="7.03746" lon="125.4539">
        <ele>211.61</ele>
      </trkpt>
      <trkpt lat="7.03753" lon="125.45374">
        <ele>208.2</ele>
      </trkpt>
      <trkpt lat="7.03756" lon="125.4537">
        <ele>207.23</ele>
      </trkpt>
      <trkpt lat="7.03764" lon="125.45358">
        <ele>204.26</ele>
      </trkpt>
      <trkpt lat="7.03767" lon="125.45355">
        <ele>203.72</ele>
      </trkpt>
      <trkpt lat="7.03769" lon="125.45351">
        <ele>203.22</ele>
      </trkpt>
      <trkpt lat="7.03771" lon="125.45344">
        <ele>202.5</ele>
      </trkpt>
      <trkpt lat="7.03771" lon="125.4534">
        <ele>202.21</ele>
      </trkpt>
      <trkpt lat="7.03774" lon="125.45329">
        <ele>201.37</ele>
      </trkpt>
      <trkpt lat="7.03776" lon="125.45322">
        <ele>201.14</ele>
      </trkpt>
      <trkpt lat="7.03777" lon="125.45318">
        <ele>201.05</ele>
      </trkpt>
      <trkpt lat="7.03777" lon="125.45315">
        <ele>201.05</ele>
      </trkpt>
      <trkpt lat="7.03777" lon="125.45312">
        <ele>201.04</ele>
      </trkpt>
      <trkpt lat="7.03775" lon="125.45309">
        <ele>201.12</ele>
      </trkpt>
      <trkpt lat="7.03771" lon="125.45301">
        <ele>202.06</ele>
      </trkpt>
      <trkpt lat="7.03769" lon="125.45293">
        <ele>203.58</ele>
      </trkpt>
      <trkpt lat="7.03768" lon="125.4529">
        <ele>204.15</ele>
      </trkpt>
      <trkpt lat="7.03768" lon="125.45284">
        <ele>205.23</ele>
      </trkpt>
      <trkpt lat="7.0377" lon="125.45277">
        <ele>206.34</ele>
      </trkpt>
      <trkpt lat="7.03772" lon="125.45275">
        <ele>206.45</ele>
      </trkpt>
      <trkpt lat="7.03775" lon="125.45272">
        <ele>206.66</ele>
      </trkpt>
      <trkpt lat="7.03779" lon="125.4527">
        <ele>206.27</ele>
      </trkpt>
      <trkpt lat="7.03782" lon="125.4527">
        <ele>204.86</ele>
      </trkpt>
      <trkpt lat="7.03786" lon="125.45269">
        <ele>203.1</ele>
      </trkpt>
      <trkpt lat="7.0379" lon="125.45269">
        <ele>201.23</ele>
      </trkpt>
      <trkpt lat="7.03792" lon="125.4527">
        <ele>200.18</ele>
      </trkpt>
      <trkpt lat="7.03795" lon="125.45269">
        <ele>198.89</ele>
      </trkpt>
      <trkpt lat="7.03804" lon="125.45268">
        <ele>194.78</ele>
      </trkpt>
      <trkpt lat="7.03809" lon="125.45268">
        <ele>193.72</ele>
      </trkpt>
      <trkpt lat="7.03813" lon="125.45267">
        <ele>193.42</ele>
      </trkpt>
      <trkpt lat="7.03816" lon="125.45266">
        <ele>193.2</ele>
      </trkpt>
      <trkpt lat="7.03819" lon="125.45265">
        <ele>192.97</ele>
      </trkpt>
      <trkpt lat="7.03823" lon="125.45265">
        <ele>192.55</ele>
      </trkpt>
      <trkpt lat="7.03829" lon="125.45263">
        <ele>192.01</ele>
      </trkpt>
      <trkpt lat="7.03833" lon="125.45262">
        <ele>191.61</ele>
      </trkpt>
      <trkpt lat="7.03837" lon="125.45263">
        <ele>189.82</ele>
      </trkpt>
      <trkpt lat="7.03841" lon="125.45265">
        <ele>187.85</ele>
      </trkpt>
      <trkpt lat="7.03843" lon="125.45265">
        <ele>186.91</ele>
      </trkpt>
      <trkpt lat="7.03849" lon="125.45269">
        <ele>183.78</ele>
      </trkpt>
      <trkpt lat="7.03856" lon="125.45273">
        <ele>180.03</ele>
      </trkpt>
      <trkpt lat="7.03861" lon="125.45277">
        <ele>177.14</ele>
      </trkpt>
      <trkpt lat="7.03865" lon="125.45282">
        <ele>176.34</ele>
      </trkpt>
      <trkpt lat="7.03868" lon="125.45288">
        <ele>175.7</ele>
      </trkpt>
      <trkpt lat="7.03869" lon="125.45289">
        <ele>175.42</ele>
      </trkpt>
      <trkpt lat="7.03873" lon="125.45287">
        <ele>174.24</ele>
      </trkpt>
      <trkpt lat="7.03877" lon="125.45281">
        <ele>173.4</ele>
      </trkpt>
      <trkpt lat="7.0388" lon="125.45276">
        <ele>173.07</ele>
      </trkpt>
      <trkpt lat="7.0388" lon="125.45274">
        <ele>173.24</ele>
      </trkpt>
      <trkpt lat="7.03881" lon="125.45272">
        <ele>173.18</ele>
      </trkpt>
      <trkpt lat="7.03882" lon="125.45268">
        <ele>173.28</ele>
      </trkpt>
      <trkpt lat="7.03883" lon="125.45262">
        <ele>173.53</ele>
      </trkpt>
      <trkpt lat="7.03885" lon="125.45255">
        <ele>173.59</ele>
      </trkpt>
      <trkpt lat="7.03888" lon="125.45252">
        <ele>173.08</ele>
      </trkpt>
      <trkpt lat="7.03888" lon="125.45248">
        <ele>173.44</ele>
      </trkpt>
      <trkpt lat="7.03891" lon="125.45243">
        <ele>173.51</ele>
      </trkpt>
      <trkpt lat="7.03895" lon="125.45237">
        <ele>173.64</ele>
      </trkpt>
      <trkpt lat="7.03898" lon="125.45235">
        <ele>173.46</ele>
      </trkpt>
      <trkpt lat="7.03903" lon="125.45221">
        <ele>174.06</ele>
      </trkpt>
      <trkpt lat="7.03903" lon="125.45217">
        <ele>174.34</ele>
      </trkpt>
      <trkpt lat="7.03904" lon="125.45214">
        <ele>174.42</ele>
      </trkpt>
      <trkpt lat="7.03905" lon="125.45207">
        <ele>174.78</ele>
      </trkpt>
      <trkpt lat="7.03906" lon="125.45205">
        <ele>174.78</ele>
      </trkpt>
      <trkpt lat="7.03906" lon="125.45196">
        <ele>175.42</ele>
      </trkpt>
      <trkpt lat="7.03907" lon="125.45194">
        <ele>175.36</ele>
      </trkpt>
      <trkpt lat="7.03907" lon="125.45191">
        <ele>175.14</ele>
      </trkpt>
      <trkpt lat="7.03908" lon="125.45188">
        <ele>174.78</ele>
      </trkpt>
      <trkpt lat="7.03908" lon="125.45186">
        <ele>174.64</ele>
      </trkpt>
      <trkpt lat="7.03908" lon="125.45184">
        <ele>174.5</ele>
      </trkpt>
      <trkpt lat="7.03908" lon="125.45183">
        <ele>174.42</ele>
      </trkpt>
      <trkpt lat="7.03908" lon="125.45179">
        <ele>174.14</ele>
      </trkpt>
      <trkpt lat="7.03909" lon="125.45176">
        <ele>173.78</ele>
      </trkpt>
      <trkpt lat="7.03908" lon="125.45173">
        <ele>173.7</ele>
      </trkpt>
      <trkpt lat="7.03909" lon="125.45172">
        <ele>173.49</ele>
      </trkpt>
      <trkpt lat="7.03908" lon="125.45167">
        <ele>173.27</ele>
      </trkpt>
      <trkpt lat="7.03909" lon="125.45164">
        <ele>173.77</ele>
      </trkpt>
      <trkpt lat="7.03908" lon="125.4516">
        <ele>174.87</ele>
      </trkpt>
      <trkpt lat="7.03906" lon="125.45157">
        <ele>175.79</ele>
      </trkpt>
      <trkpt lat="7.03903" lon="125.45155">
        <ele>176.5</ele>
      </trkpt>
      <trkpt lat="7.03895" lon="125.45152">
        <ele>177.7</ele>
      </trkpt>
      <trkpt lat="7.03886" lon="125.45151">
        <ele>178.31</ele>
      </trkpt>
      <trkpt lat="7.03879" lon="125.45147">
        <ele>178.6</ele>
      </trkpt>
      <trkpt lat="7.03878" lon="125.45145">
        <ele>178.63</ele>
      </trkpt>
      <trkpt lat="7.03877" lon="125.45144">
        <ele>178.61</ele>
      </trkpt>
      <trkpt lat="7.03877" lon="125.45135">
        <ele>178.88</ele>
      </trkpt>
      <trkpt lat="7.03876" lon="125.45132">
        <ele>178.81</ele>
      </trkpt>
      <trkpt lat="7.03876" lon="125.45128">
        <ele>178.93</ele>
      </trkpt>
      <trkpt lat="7.03873" lon="125.45123">
        <ele>178.2</ele>
      </trkpt>
      <trkpt lat="7.03871" lon="125.45123">
        <ele>177.61</ele>
      </trkpt>
      <trkpt lat="7.03868" lon="125.45123">
        <ele>176.73</ele>
      </trkpt>
      <trkpt lat="7.03865" lon="125.45124">
        <ele>175.95</ele>
      </trkpt>
      <trkpt lat="7.03862" lon="125.45124">
        <ele>175.11</ele>
      </trkpt>
      <trkpt lat="7.03858" lon="125.45125">
        <ele>175.11</ele>
      </trkpt>
      <trkpt lat="7.03856" lon="125.45125">
        <ele>175.18</ele>
      </trkpt>
      <trkpt lat="7.03854" lon="125.45126">
        <ele>175.38</ele>
      </trkpt>
      <trkpt lat="7.03853" lon="125.45125">
        <ele>175.29</ele>
      </trkpt>
      <trkpt lat="7.0385" lon="125.45126">
        <ele>175.52</ele>
      </trkpt>
      <trkpt lat="7.03847" lon="125.45125">
        <ele>175.51</ele>
      </trkpt>
      <trkpt lat="7.03842" lon="125.45127">
        <ele>175.88</ele>
      </trkpt>
      <trkpt lat="7.03837" lon="125.45127">
        <ele>176.03</ele>
      </trkpt>
      <trkpt lat="7.03831" lon="125.45125">
        <ele>176.21</ele>
      </trkpt>
      <trkpt lat="7.03827" lon="125.45123">
        <ele>176.48</ele>
      </trkpt>
      <trkpt lat="7.03819" lon="125.45111">
        <ele>177.07</ele>
      </trkpt>
      <trkpt lat="7.03813" lon="125.45105">
        <ele>178.29</ele>
      </trkpt>
      <trkpt lat="7.0381" lon="125.45104">
        <ele>178.92</ele>
      </trkpt>
      <trkpt lat="7.03804" lon="125.45097">
        <ele>180.86</ele>
      </trkpt>
      <trkpt lat="7.03799" lon="125.45093">
        <ele>182.16</ele>
      </trkpt>
      <trkpt lat="7.03795" lon="125.45089">
        <ele>182.99</ele>
      </trkpt>
      <trkpt lat="7.03792" lon="125.45085">
        <ele>183.46</ele>
      </trkpt>
      <trkpt lat="7.03789" lon="125.4508">
        <ele>184.77</ele>
      </trkpt>
      <trkpt lat="7.03785" lon="125.45074">
        <ele>187.07</ele>
      </trkpt>
      <trkpt lat="7.03786" lon="125.45072">
        <ele>187.54</ele>
      </trkpt>
      <trkpt lat="7.03785" lon="125.45071">
        <ele>187.99</ele>
      </trkpt>
      <trkpt lat="7.03786" lon="125.45068">
        <ele>188.75</ele>
      </trkpt>
      <trkpt lat="7.03789" lon="125.45064">
        <ele>189.49</ele>
      </trkpt>
      <trkpt lat="7.03792" lon="125.45055">
        <ele>191.28</ele>
      </trkpt>
      <trkpt lat="7.03792" lon="125.45052">
        <ele>190.42</ele>
      </trkpt>
      <trkpt lat="7.03794" lon="125.45049">
        <ele>189.19</ele>
      </trkpt>
      <trkpt lat="7.03796" lon="125.45044">
        <ele>187.39</ele>
      </trkpt>
      <trkpt lat="7.03796" lon="125.45041">
        <ele>186.53</ele>
      </trkpt>
      <trkpt lat="7.03797" lon="125.45038">
        <ele>185.48</ele>
      </trkpt>
      <trkpt lat="7.03797" lon="125.45032">
        <ele>183.76</ele>
      </trkpt>
      <trkpt lat="7.03796" lon="125.45028">
        <ele>182.78</ele>
      </trkpt>
      <trkpt lat="7.03796" lon="125.45023">
        <ele>182.72</ele>
      </trkpt>
      <trkpt lat="7.03794" lon="125.45012">
        <ele>183.08</ele>
      </trkpt>
      <trkpt lat="7.03793" lon="125.4501">
        <ele>183.26</ele>
      </trkpt>
      <trkpt lat="7.03792" lon="125.45006">
        <ele>183.44</ele>
      </trkpt>
      <trkpt lat="7.0379" lon="125.45001">
        <ele>183.8</ele>
      </trkpt>
      <trkpt lat="7.0379" lon="125.44996">
        <ele>184.65</ele>
      </trkpt>
      <trkpt lat="7.0379" lon="125.44989">
        <ele>186.13</ele>
      </trkpt>
      <trkpt lat="7.03788" lon="125.44978">
        <ele>188.7</ele>
      </trkpt>
      <trkpt lat="7.03789" lon="125.44971">
        <ele>190.13</ele>
      </trkpt>
      <trkpt lat="7.03788" lon="125.44965">
        <ele>191.87</ele>
      </trkpt>
      <trkpt lat="7.03788" lon="125.44962">
        <ele>192.68</ele>
      </trkpt>
      <trkpt lat="7.03789" lon="125.4496">
        <ele>193.23</ele>
      </trkpt>
      <trkpt lat="7.03789" lon="125.44956">
        <ele>194.36</ele>
      </trkpt>
      <trkpt lat="7.03788" lon="125.44953">
        <ele>195.14</ele>
      </trkpt>
      <trkpt lat="7.03788" lon="125.44951">
        <ele>195.68</ele>
      </trkpt>
      <trkpt lat="7.03785" lon="125.44946">
        <ele>196.66</ele>
      </trkpt>
      <trkpt lat="7.03783" lon="125.44941">
        <ele>197.1</ele>
      </trkpt>
      <trkpt lat="7.03783" lon="125.44937">
        <ele>197.51</ele>
      </trkpt>
      <trkpt lat="7.03783" lon="125.44933">
        <ele>197.91</ele>
      </trkpt>
      <trkpt lat="7.03782" lon="125.44929">
        <ele>198.19</ele>
      </trkpt>
      <trkpt lat="7.03782" lon="125.44923">
        <ele>198.81</ele>
      </trkpt>
      <trkpt lat="7.03782" lon="125.44918">
        <ele>199.32</ele>
      </trkpt>
      <trkpt lat="7.03782" lon="125.44912">
        <ele>200.62</ele>
      </trkpt>
      <trkpt lat="7.03781" lon="125.44906">
        <ele>202.11</ele>
      </trkpt>
      <trkpt lat="7.0378" lon="125.44899">
        <ele>203.97</ele>
      </trkpt>
      <trkpt lat="7.03779" lon="125.44897">
        <ele>204.58</ele>
      </trkpt>
      <trkpt lat="7.03779" lon="125.44892">
        <ele>205.96</ele>
      </trkpt>
      <trkpt lat="7.03778" lon="125.44889">
        <ele>206.94</ele>
      </trkpt>
      <trkpt lat="7.03778" lon="125.44884">
        <ele>205.74</ele>
      </trkpt>
      <trkpt lat="7.03778" lon="125.44878">
        <ele>204.23</ele>
      </trkpt>
      <trkpt lat="7.03779" lon="125.44876">
        <ele>203.64</ele>
      </trkpt>
      <trkpt lat="7.03779" lon="125.44872">
        <ele>202.65</ele>
      </trkpt>
      <trkpt lat="7.0378" lon="125.44868">
        <ele>201.6</ele>
      </trkpt>
      <trkpt lat="7.0378" lon="125.44864">
        <ele>200.62</ele>
      </trkpt>
      <trkpt lat="7.03781" lon="125.4486">
        <ele>199.81</ele>
      </trkpt>
      <trkpt lat="7.03781" lon="125.44851">
        <ele>199.24</ele>
      </trkpt>
      <trkpt lat="7.03781" lon="125.44848">
        <ele>199.05</ele>
      </trkpt>
      <trkpt lat="7.03782" lon="125.44845">
        <ele>198.86</ele>
      </trkpt>
      <trkpt lat="7.03782" lon="125.44843">
        <ele>198.74</ele>
      </trkpt>
      <trkpt lat="7.03782" lon="125.44838">
        <ele>198.44</ele>
      </trkpt>
      <trkpt lat="7.03781" lon="125.44836">
        <ele>198.29</ele>
      </trkpt>
      <trkpt lat="7.03782" lon="125.44832">
        <ele>198.19</ele>
      </trkpt>
      <trkpt lat="7.03781" lon="125.4483">
        <ele>198.22</ele>
      </trkpt>
      <trkpt lat="7.03781" lon="125.44827">
        <ele>198.32</ele>
      </trkpt>
      <trkpt lat="7.03781" lon="125.44823">
        <ele>198.44</ele>
      </trkpt>
      <trkpt lat="7.03781" lon="125.44819">
        <ele>198.57</ele>
      </trkpt>
      <trkpt lat="7.03782" lon="125.44814">
        <ele>198.74</ele>
      </trkpt>
      <trkpt lat="7.03783" lon="125.44811">
        <ele>198.84</ele>
      </trkpt>
      <trkpt lat="7.03785" lon="125.44805">
        <ele>199.19</ele>
      </trkpt>
      <trkpt lat="7.03784" lon="125.44801">
        <ele>200.62</ele>
      </trkpt>
      <trkpt lat="7.03781" lon="125.44797">
        <ele>202.21</ele>
      </trkpt>
      <trkpt lat="7.0378" lon="125.44791">
        <ele>204.55</ele>
      </trkpt>
      <trkpt lat="7.03779" lon="125.44786">
        <ele>206.59</ele>
      </trkpt>
      <trkpt lat="7.03778" lon="125.44782">
        <ele>208.29</ele>
      </trkpt>
      <trkpt lat="7.03778" lon="125.44779">
        <ele>209.48</ele>
      </trkpt>
      <trkpt lat="7.03778" lon="125.44776">
        <ele>211.3</ele>
      </trkpt>
      <trkpt lat="7.03777" lon="125.44774">
        <ele>213.03</ele>
      </trkpt>
      <trkpt lat="7.03771" lon="125.44769">
        <ele>217.51</ele>
      </trkpt>
      <trkpt lat="7.03769" lon="125.44763">
        <ele>221.35</ele>
      </trkpt>
      <trkpt lat="7.03767" lon="125.44759">
        <ele>223.63</ele>
      </trkpt>
      <trkpt lat="7.03766" lon="125.44757">
        <ele>224.66</ele>
      </trkpt>
      <trkpt lat="7.03767" lon="125.44752">
        <ele>227.55</ele>
      </trkpt>
      <trkpt lat="7.03767" lon="125.44749">
        <ele>229.1</ele>
      </trkpt>
      <trkpt lat="7.03766" lon="125.44745">
        <ele>230.57</ele>
      </trkpt>
      <trkpt lat="7.03767" lon="125.44742">
        <ele>232.08</ele>
      </trkpt>
      <trkpt lat="7.03768" lon="125.44741">
        <ele>232.76</ele>
      </trkpt>
      <trkpt lat="7.03769" lon="125.4474">
        <ele>233.44</ele>
      </trkpt>
      <trkpt lat="7.0377" lon="125.44738">
        <ele>234.57</ele>
      </trkpt>
      <trkpt lat="7.03772" lon="125.44736">
        <ele>235.99</ele>
      </trkpt>
      <trkpt lat="7.03777" lon="125.44725">
        <ele>242.46</ele>
      </trkpt>
      <trkpt lat="7.0378" lon="125.44719">
        <ele>244.48</ele>
      </trkpt>
      <trkpt lat="7.03782" lon="125.44712">
        <ele>246.22</ele>
      </trkpt>
      <trkpt lat="7.03785" lon="125.44707">
        <ele>247.82</ele>
      </trkpt>
      <trkpt lat="7.03787" lon="125.44702">
        <ele>249.7</ele>
      </trkpt>
      <trkpt lat="7.03788" lon="125.44698">
        <ele>251.29</ele>
      </trkpt>
      <trkpt lat="7.03788" lon="125.44691">
        <ele>253.85</ele>
      </trkpt>
      <trkpt lat="7.03789" lon="125.44688">
        <ele>255.19</ele>
      </trkpt>
      <trkpt lat="7.03789" lon="125.44685">
        <ele>256.29</ele>
      </trkpt>
      <trkpt lat="7.03792" lon="125.44677">
        <ele>259.85</ele>
      </trkpt>
      <trkpt lat="7.03792" lon="125.44672">
        <ele>261.64</ele>
      </trkpt>
      <trkpt lat="7.03792" lon="125.44671">
        <ele>262.0</ele>
      </trkpt>
      <trkpt lat="7.03793" lon="125.44665">
        <ele>265.04</ele>
      </trkpt>
      <trkpt lat="7.03794" lon="125.44661">
        <ele>268.31</ele>
      </trkpt>
      <trkpt lat="7.03795" lon="125.44657">
        <ele>271.51</ele>
      </trkpt>
      <trkpt lat="7.03796" lon="125.44656">
        <ele>272.37</ele>
      </trkpt>
      <trkpt lat="7.03797" lon="125.44654">
        <ele>273.97</ele>
      </trkpt>
      <trkpt lat="7.03798" lon="125.44651">
        <ele>276.28</ele>
      </trkpt>
      <trkpt lat="7.03801" lon="125.44648">
        <ele>278.61</ele>
      </trkpt>
      <trkpt lat="7.03801" lon="125.44643">
        <ele>282.21</ele>
      </trkpt>
      <trkpt lat="7.038" lon="125.44638">
        <ele>285.91</ele>
      </trkpt>
      <trkpt lat="7.03798" lon="125.44635">
        <ele>288.19</ele>
      </trkpt>
      <trkpt lat="7.03793" lon="125.44619">
        <ele>297.92</ele>
      </trkpt>
      <trkpt lat="7.03798" lon="125.44635">
        <ele>288.19</ele>
      </trkpt>
      <trkpt lat="7.038" lon="125.44638">
        <ele>285.91</ele>
      </trkpt>
      <trkpt lat="7.03801" lon="125.44643">
        <ele>282.21</ele>
      </trkpt>
      <trkpt lat="7.03801" lon="125.44648">
        <ele>278.61</ele>
      </trkpt>
      <trkpt lat="7.03798" lon="125.44651">
        <ele>276.28</ele>
      </trkpt>
      <trkpt lat="7.03797" lon="125.44654">
        <ele>273.97</ele>
      </trkpt>
      <trkpt lat="7.03796" lon="125.44656">
        <ele>272.37</ele>
      </trkpt>
      <trkpt lat="7.03795" lon="125.44657">
        <ele>271.51</ele>
      </trkpt>
      <trkpt lat="7.03794" lon="125.44661">
        <ele>268.31</ele>
      </trkpt>
      <trkpt lat="7.03793" lon="125.44665">
        <ele>265.04</ele>
      </trkpt>
      <trkpt lat="7.03792" lon="125.44671">
        <ele>262.0</ele>
      </trkpt>
      <trkpt lat="7.03792" lon="125.44672">
        <ele>261.64</ele>
      </trkpt>
      <trkpt lat="7.03792" lon="125.44677">
        <ele>259.85</ele>
      </trkpt>
      <trkpt lat="7.03789" lon="125.44685">
        <ele>256.29</ele>
      </trkpt>
      <trkpt lat="7.03789" lon="125.44688">
        <ele>255.19</ele>
      </trkpt>
      <trkpt lat="7.03788" lon="125.44691">
        <ele>253.85</ele>
      </trkpt>
      <trkpt lat="7.03788" lon="125.44698">
        <ele>251.29</ele>
      </trkpt>
      <trkpt lat="7.03787" lon="125.44702">
        <ele>249.7</ele>
      </trkpt>
      <trkpt lat="7.03785" lon="125.44707">
        <ele>247.82</ele>
      </trkpt>
      <trkpt lat="7.03782" lon="125.44712">
        <ele>246.22</ele>
      </trkpt>
      <trkpt lat="7.0378" lon="125.44719">
        <ele>244.48</ele>
      </trkpt>
      <trkpt lat="7.03777" lon="125.44725">
        <ele>242.46</ele>
      </trkpt>
      <trkpt lat="7.03772" lon="125.44736">
        <ele>235.99</ele>
      </trkpt>
      <trkpt lat="7.0377" lon="125.44738">
        <ele>234.57</ele>
      </trkpt>
      <trkpt lat="7.03769" lon="125.4474">
        <ele>233.44</ele>
      </trkpt>
      <trkpt lat="7.03768" lon="125.44741">
        <ele>232.76</ele>
      </trkpt>
      <trkpt lat="7.03767" lon="125.44742">
        <ele>232.08</ele>
      </trkpt>
      <trkpt lat="7.03766" lon="125.44745">
        <ele>230.57</ele>
      </trkpt>
      <trkpt lat="7.03767" lon="125.44749">
        <ele>229.1</ele>
      </trkpt>
      <trkpt lat="7.03767" lon="125.44752">
        <ele>227.55</ele>
      </trkpt>
      <trkpt lat="7.03766" lon="125.44757">
        <ele>224.66</ele>
      </trkpt>
      <trkpt lat="7.03767" lon="125.44759">
        <ele>223.63</ele>
      </trkpt>
      <trkpt lat="7.03769" lon="125.44763">
        <ele>221.35</ele>
      </trkpt>
      <trkpt lat="7.03771" lon="125.44769">
        <ele>217.51</ele>
      </trkpt>
      <trkpt lat="7.03777" lon="125.44774">
        <ele>213.03</ele>
      </trkpt>
      <trkpt lat="7.03778" lon="125.44776">
        <ele>211.3</ele>
      </trkpt>
      <trkpt lat="7.03778" lon="125.44779">
        <ele>209.48</ele>
      </trkpt>
      <trkpt lat="7.03778" lon="125.44782">
        <ele>208.29</ele>
      </trkpt>
      <trkpt lat="7.03779" lon="125.44786">
        <ele>206.59</ele>
      </trkpt>
      <trkpt lat="7.0378" lon="125.44791">
        <ele>204.55</ele>
      </trkpt>
      <trkpt lat="7.03781" lon="125.44797">
        <ele>202.21</ele>
      </trkpt>
      <trkpt lat="7.03784" lon="125.44801">
        <ele>200.62</ele>
      </trkpt>
      <trkpt lat="7.03785" lon="125.44805">
        <ele>199.19</ele>
      </trkpt>
      <trkpt lat="7.03783" lon="125.44811">
        <ele>198.84</ele>
      </trkpt>
      <trkpt lat="7.03782" lon="125.44814">
        <ele>198.74</ele>
      </trkpt>
      <trkpt lat="7.03781" lon="125.44819">
        <ele>198.57</ele>
      </trkpt>
      <trkpt lat="7.03781" lon="125.44823">
        <ele>198.44</ele>
      </trkpt>
      <trkpt lat="7.03781" lon="125.44827">
        <ele>198.32</ele>
      </trkpt>
      <trkpt lat="7.03781" lon="125.4483">
        <ele>198.22</ele>
      </trkpt>
      <trkpt lat="7.03782" lon="125.44832">
        <ele>198.19</ele>
      </trkpt>
      <trkpt lat="7.03781" lon="125.44836">
        <ele>198.29</ele>
      </trkpt>
      <trkpt lat="7.03782" lon="125.44838">
        <ele>198.44</ele>
      </trkpt>
      <trkpt lat="7.03782" lon="125.44843">
        <ele>198.74</ele>
      </trkpt>
      <trkpt lat="7.03782" lon="125.44845">
        <ele>198.86</ele>
      </trkpt>
      <trkpt lat="7.03781" lon="125.44848">
        <ele>199.05</ele>
      </trkpt>
      <trkpt lat="7.03781" lon="125.44851">
        <ele>199.24</ele>
      </trkpt>
      <trkpt lat="7.03781" lon="125.4486">
        <ele>199.81</ele>
      </trkpt>
      <trkpt lat="7.0378" lon="125.44864">
        <ele>200.62</ele>
      </trkpt>
      <trkpt lat="7.0378" lon="125.44868">
        <ele>201.6</ele>
      </trkpt>
      <trkpt lat="7.03779" lon="125.44872">
        <ele>202.65</ele>
      </trkpt>
      <trkpt lat="7.03779" lon="125.44876">
        <ele>203.64</ele>
      </trkpt>
      <trkpt lat="7.03778" lon="125.44878">
        <ele>204.23</ele>
      </trkpt>
      <trkpt lat="7.03778" lon="125.44884">
        <ele>205.74</ele>
      </trkpt>
      <trkpt lat="7.03778" lon="125.44889">
        <ele>206.94</ele>
      </trkpt>
      <trkpt lat="7.03779" lon="125.44892">
        <ele>205.96</ele>
      </trkpt>
      <trkpt lat="7.03779" lon="125.44897">
        <ele>204.58</ele>
      </trkpt>
      <trkpt lat="7.0378" lon="125.44899">
        <ele>203.97</ele>
      </trkpt>
      <trkpt lat="7.03781" lon="125.44906">
        <ele>202.11</ele>
      </trkpt>
      <trkpt lat="7.03782" lon="125.44912">
        <ele>200.62</ele>
      </trkpt>
      <trkpt lat="7.03782" lon="125.44918">
        <ele>199.32</ele>
      </trkpt>
      <trkpt lat="7.03782" lon="125.44923">
        <ele>198.81</ele>
      </trkpt>
      <trkpt lat="7.03782" lon="125.44929">
        <ele>198.19</ele>
      </trkpt>
      <trkpt lat="7.03783" lon="125.44933">
        <ele>197.91</ele>
      </trkpt>
      <trkpt lat="7.03783" lon="125.44937">
        <ele>197.51</ele>
      </trkpt>
      <trkpt lat="7.03783" lon="125.44941">
        <ele>197.1</ele>
      </trkpt>
      <trkpt lat="7.03785" lon="125.44946">
        <ele>196.66</ele>
      </trkpt>
      <trkpt lat="7.03788" lon="125.44951">
        <ele>195.68</ele>
      </trkpt>
      <trkpt lat="7.03788" lon="125.44953">
        <ele>195.14</ele>
      </trkpt>
      <trkpt lat="7.03789" lon="125.44956">
        <ele>194.36</ele>
      </trkpt>
      <trkpt lat="7.03789" lon="125.4496">
        <ele>193.23</ele>
      </trkpt>
      <trkpt lat="7.03788" lon="125.44962">
        <ele>192.68</ele>
      </trkpt>
      <trkpt lat="7.03788" lon="125.44965">
        <ele>191.87</ele>
      </trkpt>
      <trkpt lat="7.03789" lon="125.44971">
        <ele>190.13</ele>
      </trkpt>
      <trkpt lat="7.03788" lon="125.44978">
        <ele>188.7</ele>
      </trkpt>
      <trkpt lat="7.0379" lon="125.44989">
        <ele>186.13</ele>
      </trkpt>
      <trkpt lat="7.0379" lon="125.44996">
        <ele>184.65</ele>
      </trkpt>
      <trkpt lat="7.0379" lon="125.45001">
        <ele>183.8</ele>
      </trkpt>
      <trkpt lat="7.03792" lon="125.45006">
        <ele>183.44</ele>
      </trkpt>
      <trkpt lat="7.03793" lon="125.4501">
        <ele>183.26</ele>
      </trkpt>
      <trkpt lat="7.03794" lon="125.45012">
        <ele>183.08</ele>
      </trkpt>
      <trkpt lat="7.03796" lon="125.45023">
        <ele>182.72</ele>
      </trkpt>
      <trkpt lat="7.03796" lon="125.45028">
        <ele>182.78</ele>
      </trkpt>
      <trkpt lat="7.03797" lon="125.45032">
        <ele>183.76</ele>
      </trkpt>
      <trkpt lat="7.03797" lon="125.45038">
        <ele>185.48</ele>
      </trkpt>
      <trkpt lat="7.03796" lon="125.45041">
        <ele>186.53</ele>
      </trkpt>
      <trkpt lat="7.03796" lon="125.45044">
        <ele>187.39</ele>
      </trkpt>
      <trkpt lat="7.03794" lon="125.45049">
        <ele>189.19</ele>
      </trkpt>
      <trkpt lat="7.03792" lon="125.45052">
        <ele>190.42</ele>
      </trkpt>
      <trkpt lat="7.03792" lon="125.45055">
        <ele>191.28</ele>
      </trkpt>
      <trkpt lat="7.03789" lon="125.45064">
        <ele>189.49</ele>
      </trkpt>
      <trkpt lat="7.03786" lon="125.45068">
        <ele>188.75</ele>
      </trkpt>
      <trkpt lat="7.03785" lon="125.45071">
        <ele>187.99</ele>
      </trkpt>
      <trkpt lat="7.03786" lon="125.45072">
        <ele>187.54</ele>
      </trkpt>
      <trkpt lat="7.03785" lon="125.45074">
        <ele>187.07</ele>
      </trkpt>
      <trkpt lat="7.03789" lon="125.4508">
        <ele>184.77</ele>
      </trkpt>
      <trkpt lat="7.03792" lon="125.45085">
        <ele>183.46</ele>
      </trkpt>
      <trkpt lat="7.03795" lon="125.45089">
        <ele>182.99</ele>
      </trkpt>
      <trkpt lat="7.03799" lon="125.45093">
        <ele>182.16</ele>
      </trkpt>
      <trkpt lat="7.03804" lon="125.45097">
        <ele>180.86</ele>
      </trkpt>
      <trkpt lat="7.0381" lon="125.45104">
        <ele>178.92</ele>
      </trkpt>
      <trkpt lat="7.03813" lon="125.45105">
        <ele>178.29</ele>
      </trkpt>
      <trkpt lat="7.03819" lon="125.45111">
        <ele>177.07</ele>
      </trkpt>
      <trkpt lat="7.03827" lon="125.45123">
        <ele>176.48</ele>
      </trkpt>
      <trkpt lat="7.03831" lon="125.45125">
        <ele>176.21</ele>
      </trkpt>
      <trkpt lat="7.03837" lon="125.45127">
        <ele>176.03</ele>
      </trkpt>
      <trkpt lat="7.03842" lon="125.45127">
        <ele>175.88</ele>
      </trkpt>
      <trkpt lat="7.03847" lon="125.45125">
        <ele>175.51</ele>
      </trkpt>
      <trkpt lat="7.0385" lon="125.45126">
        <ele>175.52</ele>
      </trkpt>
      <trkpt lat="7.03853" lon="125.45125">
        <ele>175.29</ele>
      </trkpt>
      <trkpt lat="7.03854" lon="125.45126">
        <ele>175.38</ele>
      </trkpt>
      <trkpt lat="7.03856" lon="125.45125">
        <ele>175.18</ele>
      </trkpt>
      <trkpt lat="7.03858" lon="125.45125">
        <ele>175.11</ele>
      </trkpt>
      <trkpt lat="7.03862" lon="125.45124">
        <ele>175.11</ele>
      </trkpt>
      <trkpt lat="7.03865" lon="125.45124">
        <ele>175.95</ele>
      </trkpt>
      <trkpt lat="7.03868" lon="125.45123">
        <ele>176.73</ele>
      </trkpt>
      <trkpt lat="7.03871" lon="125.45123">
        <ele>177.61</ele>
      </trkpt>
      <trkpt lat="7.03873" lon="125.45123">
        <ele>178.2</ele>
      </trkpt>
      <trkpt lat="7.03876" lon="125.45128">
        <ele>178.93</ele>
      </trkpt>
      <trkpt lat="7.03876" lon="125.45132">
        <ele>178.81</ele>
      </trkpt>
      <trkpt lat="7.03877" lon="125.45135">
        <ele>178.88</ele>
      </trkpt>
      <trkpt lat="7.03877" lon="125.45144">
        <ele>178.61</ele>
      </trkpt>
      <trkpt lat="7.03878" lon="125.45145">
        <ele>178.63</ele>
      </trkpt>
      <trkpt lat="7.03879" lon="125.45147">
        <ele>178.6</ele>
      </trkpt>
      <trkpt lat="7.03886" lon="125.45151">
        <ele>178.31</ele>
      </trkpt>
      <trkpt lat="7.03895" lon="125.45152">
        <ele>177.7</ele>
      </trkpt>
      <trkpt lat="7.03903" lon="125.45155">
        <ele>176.5</ele>
      </trkpt>
      <trkpt lat="7.03906" lon="125.45157">
        <ele>175.79</ele>
      </trkpt>
      <trkpt lat="7.03908" lon="125.4516">
        <ele>174.87</ele>
      </trkpt>
      <trkpt lat="7.03909" lon="125.45164">
        <ele>173.77</ele>
      </trkpt>
      <trkpt lat="7.03908" lon="125.45167">
        <ele>173.27</ele>
      </trkpt>
      <trkpt lat="7.03909" lon="125.45172">
        <ele>173.49</ele>
      </trkpt>
      <trkpt lat="7.03908" lon="125.45173">
        <ele>173.7</ele>
      </trkpt>
      <trkpt lat="7.03909" lon="125.45176">
        <ele>173.78</ele>
      </trkpt>
      <trkpt lat="7.03908" lon="125.45179">
        <ele>174.14</ele>
      </trkpt>
      <trkpt lat="7.03908" lon="125.45183">
        <ele>174.42</ele>
      </trkpt>
      <trkpt lat="7.03908" lon="125.45184">
        <ele>174.5</ele>
      </trkpt>
      <trkpt lat="7.03908" lon="125.45186">
        <ele>174.64</ele>
      </trkpt>
      <trkpt lat="7.03908" lon="125.45188">
        <ele>174.78</ele>
      </trkpt>
      <trkpt lat="7.03907" lon="125.45191">
        <ele>175.14</ele>
      </trkpt>
      <trkpt lat="7.03907" lon="125.45194">
        <ele>175.36</ele>
      </trkpt>
      <trkpt lat="7.03906" lon="125.45196">
        <ele>175.42</ele>
      </trkpt>
      <trkpt lat="7.03906" lon="125.45205">
        <ele>174.78</ele>
      </trkpt>
      <trkpt lat="7.03905" lon="125.45207">
        <ele>174.78</ele>
      </trkpt>
      <trkpt lat="7.03904" lon="125.45214">
        <ele>174.42</ele>
      </trkpt>
      <trkpt lat="7.03903" lon="125.45217">
        <ele>174.34</ele>
      </trkpt>
      <trkpt lat="7.03903" lon="125.45221">
        <ele>174.06</ele>
      </trkpt>
      <trkpt lat="7.03898" lon="125.45235">
        <ele>173.46</ele>
      </trkpt>
      <trkpt lat="7.03895" lon="125.45237">
        <ele>173.64</ele>
      </trkpt>
      <trkpt lat="7.03891" lon="125.45243">
        <ele>173.51</ele>
      </trkpt>
      <trkpt lat="7.03888" lon="125.45248">
        <ele>173.44</ele>
      </trkpt>
      <trkpt lat="7.03888" lon="125.45252">
        <ele>173.08</ele>
      </trkpt>
      <trkpt lat="7.03885" lon="125.45255">
        <ele>173.59</ele>
      </trkpt>
      <trkpt lat="7.03883" lon="125.45262">
        <ele>173.53</ele>
      </trkpt>
      <trkpt lat="7.03882" lon="125.45268">
        <ele>173.28</ele>
      </trkpt>
      <trkpt lat="7.03881" lon="125.45272">
        <ele>173.18</ele>
      </trkpt>
      <trkpt lat="7.0388" lon="125.45274">
        <ele>173.24</ele>
      </trkpt>
      <trkpt lat="7.0388" lon="125.45276">
        <ele>173.07</ele>
      </trkpt>
      <trkpt lat="7.03877" lon="125.45281">
        <ele>173.4</ele>
      </trkpt>
      <trkpt lat="7.03873" lon="125.45287">
        <ele>174.24</ele>
      </trkpt>
      <trkpt lat="7.03869" lon="125.45289">
        <ele>175.42</ele>
      </trkpt>
      <trkpt lat="7.03868" lon="125.45288">
        <ele>175.7</ele>
      </trkpt>
      <trkpt lat="7.03865" lon="125.45282">
        <ele>176.34</ele>
      </trkpt>
      <trkpt lat="7.03861" lon="125.45277">
        <ele>177.14</ele>
      </trkpt>
      <trkpt lat="7.03856" lon="125.45273">
        <ele>180.03</ele>
      </trkpt>
      <trkpt lat="7.03849" lon="125.45269">
        <ele>183.78</ele>
      </trkpt>
      <trkpt lat="7.03843" lon="125.45265">
        <ele>186.91</ele>
      </trkpt>
      <trkpt lat="7.03841" lon="125.45265">
        <ele>187.85</ele>
      </trkpt>
      <trkpt lat="7.03837" lon="125.45263">
        <ele>189.82</ele>
      </trkpt>
      <trkpt lat="7.03833" lon="125.45262">
        <ele>191.61</ele>
      </trkpt>
      <trkpt lat="7.03829" lon="125.45263">
        <ele>192.01</ele>
      </trkpt>
      <trkpt lat="7.03823" lon="125.45265">
        <ele>192.55</ele>
      </trkpt>
      <trkpt lat="7.03819" lon="125.45265">
        <ele>192.97</ele>
      </trkpt>
      <trkpt lat="7.03816" lon="125.45266">
        <ele>193.2</ele>
      </trkpt>
      <trkpt lat="7.03813" lon="125.45267">
        <ele>193.42</ele>
      </trkpt>
      <trkpt lat="7.03809" lon="125.45268">
        <ele>193.72</ele>
      </trkpt>
      <trkpt lat="7.03804" lon="125.45268">
        <ele>194.78</ele>
      </trkpt>
      <trkpt lat="7.03795" lon="125.45269">
        <ele>198.89</ele>
      </trkpt>
      <trkpt lat="7.03792" lon="125.4527">
        <ele>200.18</ele>
      </trkpt>
      <trkpt lat="7.0379" lon="125.45269">
        <ele>201.23</ele>
      </trkpt>
      <trkpt lat="7.03786" lon="125.45269">
        <ele>203.1</ele>
      </trkpt>
      <trkpt lat="7.03782" lon="125.4527">
        <ele>204.86</ele>
      </trkpt>
      <trkpt lat="7.03779" lon="125.4527">
        <ele>206.27</ele>
      </trkpt>
      <trkpt lat="7.03775" lon="125.45272">
        <ele>206.66</ele>
      </trkpt>
      <trkpt lat="7.03772" lon="125.45275">
        <ele>206.45</ele>
      </trkpt>
      <trkpt lat="7.0377" lon="125.45277">
        <ele>206.34</ele>
      </trkpt>
      <trkpt lat="7.03768" lon="125.45284">
        <ele>205.23</ele>
      </trkpt>
      <trkpt lat="7.03768" lon="125.4529">
        <ele>204.15</ele>
      </trkpt>
      <trkpt lat="7.03769" lon="125.45293">
        <ele>203.58</ele>
      </trkpt>
      <trkpt lat="7.03771" lon="125.45301">
        <ele>202.06</ele>
      </trkpt>
      <trkpt lat="7.03775" lon="125.45309">
        <ele>201.12</ele>
      </trkpt>
      <trkpt lat="7.03777" lon="125.45312">
        <ele>201.04</ele>
      </trkpt>
      <trkpt lat="7.03777" lon="125.45315">
        <ele>201.05</ele>
      </trkpt>
      <trkpt lat="7.03777" lon="125.45318">
        <ele>201.05</ele>
      </trkpt>
      <trkpt lat="7.03776" lon="125.45322">
        <ele>201.14</ele>
      </trkpt>
      <trkpt lat="7.03774" lon="125.45329">
        <ele>201.37</ele>
      </trkpt>
      <trkpt lat="7.03771" lon="125.4534">
        <ele>202.21</ele>
      </trkpt>
      <trkpt lat="7.03771" lon="125.45344">
        <ele>202.5</ele>
      </trkpt>
      <trkpt lat="7.03769" lon="125.45351">
        <ele>203.22</ele>
      </trkpt>
      <trkpt lat="7.03767" lon="125.45355">
        <ele>203.72</ele>
      </trkpt>
      <trkpt lat="7.03764" lon="125.45358">
        <ele>204.26</ele>
      </trkpt>
      <trkpt lat="7.03756" lon="125.4537">
        <ele>207.23</ele>
      </trkpt>
      <trkpt lat="7.03753" lon="125.45374">
        <ele>208.2</ele>
      </trkpt>
      <trkpt lat="7.03746" lon="125.4539">
        <ele>211.61</ele>
      </trkpt>
      <trkpt lat="7.03743" lon="125.45394">
        <ele>212.15</ele>
      </trkpt>
      <trkpt lat="7.03741" lon="125.45398">
        <ele>212.52</ele>
      </trkpt>
      <trkpt lat="7.0374" lon="125.45401">
        <ele>212.72</ele>
      </trkpt>
      <trkpt lat="7.03739" lon="125.45406">
        <ele>212.96</ele>
      </trkpt>
      <trkpt lat="7.03738" lon="125.45413">
        <ele>213.22</ele>
      </trkpt>
      <trkpt lat="7.03738" lon="125.45423">
        <ele>212.48</ele>
      </trkpt>
      <trkpt lat="7.03736" lon="125.45431">
        <ele>211.71</ele>
      </trkpt>
      <trkpt lat="7.03736" lon="125.45434">
        <ele>211.33</ele>
      </trkpt>
      <trkpt lat="7.03738" lon="125.45441">
        <ele>210.17</ele>
      </trkpt>
      <trkpt lat="7.03738" lon="125.45449">
        <ele>208.79</ele>
      </trkpt>
      <trkpt lat="7.03735" lon="125.45457">
        <ele>207.38</ele>
      </trkpt>
      <trkpt lat="7.03734" lon="125.45461">
        <ele>206.55</ele>
      </trkpt>
      <trkpt lat="7.03734" lon="125.45464">
        <ele>205.87</ele>
      </trkpt>
      <trkpt lat="7.03732" lon="125.45469">
        <ele>204.76</ele>
      </trkpt>
      <trkpt lat="7.03731" lon="125.45477">
        <ele>202.07</ele>
      </trkpt>
      <trkpt lat="7.0373" lon="125.45484">
        <ele>199.35</ele>
      </trkpt>
      <trkpt lat="7.03729" lon="125.45492">
        <ele>196.38</ele>
      </trkpt>
      <trkpt lat="7.03728" lon="125.45496">
        <ele>195.05</ele>
      </trkpt>
      <trkpt lat="7.03727" lon="125.45501">
        <ele>193.43</ele>
      </trkpt>
      <trkpt lat="7.03726" lon="125.45504">
        <ele>192.56</ele>
      </trkpt>
      <trkpt lat="7.03726" lon="125.45507">
        <ele>191.45</ele>
      </trkpt>
      <trkpt lat="7.03725" lon="125.4551">
        <ele>190.52</ele>
      </trkpt>
      <trkpt lat="7.03725" lon="125.45514">
        <ele>189.01</ele>
      </trkpt>
      <trkpt lat="7.03722" lon="125.45523">
        <ele>185.95</ele>
      </trkpt>
      <trkpt lat="7.03722" lon="125.4553">
        <ele>184.23</ele>
      </trkpt>
      <trkpt lat="7.03721" lon="125.45533">
        <ele>184.76</ele>
      </trkpt>
      <trkpt lat="7.03721" lon="125.45543">
        <ele>185.44</ele>
      </trkpt>
      <trkpt lat="7.0372" lon="125.45546">
        <ele>185.93</ele>
      </trkpt>
      <trkpt lat="7.0372" lon="125.45555">
        <ele>186.52</ele>
      </trkpt>
      <trkpt lat="7.03719" lon="125.45559">
        <ele>185.99</ele>
      </trkpt>
      <trkpt lat="7.0372" lon="125.45562">
        <ele>184.99</ele>
      </trkpt>
      <trkpt lat="7.03719" lon="125.45566">
        <ele>184.31</ele>
      </trkpt>
      <trkpt lat="7.03719" lon="125.45571">
        <ele>183.11</ele>
      </trkpt>
      <trkpt lat="7.03718" lon="125.45576">
        <ele>182.25</ele>
      </trkpt>
      <trkpt lat="7.03718" lon="125.4558">
        <ele>181.31</ele>
      </trkpt>
      <trkpt lat="7.03717" lon="125.45585">
        <ele>180.76</ele>
      </trkpt>
      <trkpt lat="7.03715" lon="125.45591">
        <ele>181.05</ele>
      </trkpt>
      <trkpt lat="7.03715" lon="125.45594">
        <ele>180.83</ele>
      </trkpt>
      <trkpt lat="7.03711" lon="125.45606">
        <ele>181.41</ele>
      </trkpt>
      <trkpt lat="7.03706" lon="125.45616">
        <ele>184.48</ele>
      </trkpt>
      <trkpt lat="7.03702" lon="125.45622">
        <ele>187.48</ele>
      </trkpt>
      <trkpt lat="7.03699" lon="125.45629">
        <ele>190.07</ele>
      </trkpt>
      <trkpt lat="7.03699" lon="125.45633">
        <ele>191.12</ele>
      </trkpt>
      <trkpt lat="7.03699" lon="125.45638">
        <ele>192.44</ele>
      </trkpt>
      <trkpt lat="7.03698" lon="125.45641">
        <ele>192.82</ele>
      </trkpt>
      <trkpt lat="7.03698" lon="125.4565">
        <ele>193.13</ele>
      </trkpt>
      <trkpt lat="7.03698" lon="125.45658">
        <ele>193.42</ele>
      </trkpt>
      <trkpt lat="7.03697" lon="125.4566">
        <ele>193.78</ele>
      </trkpt>
      <trkpt lat="7.03695" lon="125.45662">
        <ele>194.49</ele>
      </trkpt>
      <trkpt lat="7.03693" lon="125.45663">
        <ele>194.43</ele>
      </trkpt>
      <trkpt lat="7.03688" lon="125.45662">
        <ele>193.31</ele>
      </trkpt>
      <trkpt lat="7.03681" lon="125.45661">
        <ele>191.79</ele>
      </trkpt>
      <trkpt lat="7.03673" lon="125.45662">
        <ele>190.16</ele>
      </trkpt>
      <trkpt lat="7.03667" lon="125.45663">
        <ele>188.94</ele>
      </trkpt>
      <trkpt lat="7.03664" lon="125.45663">
        <ele>188.73</ele>
      </trkpt>
      <trkpt lat="7.0366" lon="125.45663">
        <ele>188.51</ele>
      </trkpt>
      <trkpt lat="7.03654" lon="125.45662">
        <ele>188.23</ele>
      </trkpt>
      <trkpt lat="7.03647" lon="125.45664">
        <ele>187.76</ele>
      </trkpt>
      <trkpt lat="7.03644" lon="125.45665">
        <ele>187.5</ele>
      </trkpt>
      <trkpt lat="7.03638" lon="125.45664">
        <ele>187.26</ele>
      </trkpt>
      <trkpt lat="7.03637" lon="125.45664">
        <ele>187.23</ele>
      </trkpt>
      <trkpt lat="7.03632" lon="125.45663">
        <ele>187.18</ele>
      </trkpt>
      <trkpt lat="7.0363" lon="125.45661">
        <ele>187.36</ele>
      </trkpt>
      <trkpt lat="7.03627" lon="125.4566">
        <ele>187.39</ele>
      </trkpt>
      <trkpt lat="7.03624" lon="125.45658">
        <ele>187.57</ele>
      </trkpt>
      <trkpt lat="7.03617" lon="125.45653">
        <ele>188.08</ele>
      </trkpt>
      <trkpt lat="7.03612" lon="125.45649">
        <ele>188.56</ele>
      </trkpt>
      <trkpt lat="7.03609" lon="125.45648">
        <ele>188.89</ele>
      </trkpt>
      <trkpt lat="7.03607" lon="125.45648">
        <ele>189.09</ele>
      </trkpt>
      <trkpt lat="7.03606" lon="125.45648">
        <ele>189.18</ele>
      </trkpt>
      <trkpt lat="7.03602" lon="125.45648">
        <ele>189.57</ele>
      </trkpt>
      <trkpt lat="7.03596" lon="125.45651">
        <ele>189.48</ele>
      </trkpt>
      <trkpt lat="7.03591" lon="125.45655">
        <ele>188.9</ele>
      </trkpt>
      <trkpt lat="7.03588" lon="125.4566">
        <ele>187.76</ele>
      </trkpt>
      <trkpt lat="7.03587" lon="125.45666">
        <ele>186.18</ele>
      </trkpt>
      <trkpt lat="7.03587" lon="125.45672">
        <ele>185.5</ele>
      </trkpt>
      <trkpt lat="7.03582" lon="125.45676">
        <ele>185.3</ele>
      </trkpt>
      <trkpt lat="7.03579" lon="125.45682">
        <ele>185.16</ele>
      </trkpt>
      <trkpt lat="7.03576" lon="125.45687">
        <ele>184.95</ele>
      </trkpt>
      <trkpt lat="7.03572" lon="125.45691">
        <ele>184.85</ele>
      </trkpt>
      <trkpt lat="7.03568" lon="125.45696">
        <ele>184.23</ele>
      </trkpt>
      <trkpt lat="7.03564" lon="125.45701">
        <ele>183.18</ele>
      </trkpt>
      <trkpt lat="7.0356" lon="125.45706">
        <ele>181.98</ele>
      </trkpt>
      <trkpt lat="7.03556" lon="125.45711">
        <ele>180.62</ele>
      </trkpt>
      <trkpt lat="7.03555" lon="125.45712">
        <ele>180.52</ele>
      </trkpt>
      <trkpt lat="7.03554" lon="125.45713">
        <ele>180.57</ele>
      </trkpt>
      <trkpt lat="7.03552" lon="125.45715">
        <ele>180.65</ele>
      </trkpt>
      <trkpt lat="7.03548" lon="125.4572">
        <ele>180.46</ele>
      </trkpt>
      <trkpt lat="7.03546" lon="125.45726">
        <ele>179.85</ele>
      </trkpt>
      <trkpt lat="7.03542" lon="125.4573">
        <ele>180.62</ele>
      </trkpt>
      <trkpt lat="7.0354" lon="125.45733">
        <ele>180.83</ele>
      </trkpt>
      <trkpt lat="7.03539" lon="125.45736">
        <ele>180.68</ele>
      </trkpt>
      <trkpt lat="7.03535" lon="125.45741">
        <ele>181.2</ele>
      </trkpt>
      <trkpt lat="7.0353" lon="125.45743">
        <ele>182.52</ele>
      </trkpt>
      <trkpt lat="7.03525" lon="125.45744">
        <ele>184.14</ele>
      </trkpt>
      <trkpt lat="7.03525" lon="125.45744">
        <ele>184.14</ele>
      </trkpt>
      <trkpt lat="7.03524" lon="125.45744">
        <ele>184.52</ele>
      </trkpt>
      <trkpt lat="7.03518" lon="125.45746">
        <ele>186.49</ele>
      </trkpt>
      <trkpt lat="7.03512" lon="125.45746">
        <ele>188.8</ele>
      </trkpt>
      <trkpt lat="7.03506" lon="125.45746">
        <ele>191.12</ele>
      </trkpt>
      <trkpt lat="7.035" lon="125.45747">
        <ele>193.32</ele>
      </trkpt>
      <trkpt lat="7.03494" lon="125.45746">
        <ele>194.73</ele>
      </trkpt>
      <trkpt lat="7.03489" lon="125.4575">
        <ele>195.38</ele>
      </trkpt>
      <trkpt lat="7.03483" lon="125.45752">
        <ele>196.36</ele>
      </trkpt>
      <trkpt lat="7.03482" lon="125.45753">
        <ele>196.42</ele>
      </trkpt>
      <trkpt lat="7.03482" lon="125.45753">
        <ele>196.42</ele>
      </trkpt>
      <trkpt lat="7.03478" lon="125.45756">
        <ele>196.84</ele>
      </trkpt>
      <trkpt lat="7.03472" lon="125.45757">
        <ele>198.02</ele>
      </trkpt>
      <trkpt lat="7.03466" lon="125.45758">
        <ele>198.65</ele>
      </trkpt>
      <trkpt lat="7.03461" lon="125.45759">
        <ele>199.18</ele>
      </trkpt>
      <trkpt lat="7.03457" lon="125.45762">
        <ele>199.39</ele>
      </trkpt>
      <trkpt lat="7.03456" lon="125.45768">
        <ele>198.92</ele>
      </trkpt>
      <trkpt lat="7.03455" lon="125.45774">
        <ele>198.48</ele>
      </trkpt>
      <trkpt lat="7.03454" lon="125.4578">
        <ele>197.99</ele>
      </trkpt>
      <trkpt lat="7.03452" lon="125.45786">
        <ele>197.54</ele>
      </trkpt>
      <trkpt lat="7.0345" lon="125.45791">
        <ele>197.19</ele>
      </trkpt>
      <trkpt lat="7.03448" lon="125.45797">
        <ele>196.68</ele>
      </trkpt>
      <trkpt lat="7.03447" lon="125.45802">
        <ele>196.13</ele>
      </trkpt>
      <trkpt lat="7.03446" lon="125.45808">
        <ele>195.09</ele>
      </trkpt>
      <trkpt lat="7.03445" lon="125.45814">
        <ele>193.51</ele>
      </trkpt>
      <trkpt lat="7.03444" lon="125.45819">
        <ele>192.08</ele>
      </trkpt>
      <trkpt lat="7.03443" lon="125.45821">
        <ele>191.4</ele>
      </trkpt>
      <trkpt lat="7.03442" lon="125.45822">
        <ele>191.0</ele>
      </trkpt>
      <trkpt lat="7.03442" lon="125.45822">
        <ele>191.0</ele>
      </trkpt>
      <trkpt lat="7.03442" lon="125.45823">
        <ele>190.71</ele>
      </trkpt>
      <trkpt lat="7.03442" lon="125.45825">
        <ele>190.14</ele>
      </trkpt>
      <trkpt lat="7.03441" lon="125.45828">
        <ele>189.16</ele>
      </trkpt>
      <trkpt lat="7.0344" lon="125.45832">
        <ele>187.9</ele>
      </trkpt>
      <trkpt lat="7.0344" lon="125.45836">
        <ele>186.61</ele>
      </trkpt>
      <trkpt lat="7.03439" lon="125.4584">
        <ele>185.15</ele>
      </trkpt>
      <trkpt lat="7.03439" lon="125.45846">
        <ele>183.12</ele>
      </trkpt>
      <trkpt lat="7.03438" lon="125.45849">
        <ele>182.06</ele>
      </trkpt>
      <trkpt lat="7.03438" lon="125.45852">
        <ele>181.05</ele>
      </trkpt>
      <trkpt lat="7.03437" lon="125.45855">
        <ele>180.02</ele>
      </trkpt>
      <trkpt lat="7.03437" lon="125.45858">
        <ele>179.03</ele>
      </trkpt>
      <trkpt lat="7.03435" lon="125.45864">
        <ele>176.79</ele>
      </trkpt>
      <trkpt lat="7.03434" lon="125.45869">
        <ele>174.66</ele>
      </trkpt>
      <trkpt lat="7.03434" lon="125.45873">
        <ele>172.97</ele>
      </trkpt>
      <trkpt lat="7.03432" lon="125.4588">
        <ele>169.91</ele>
      </trkpt>
      <trkpt lat="7.03432" lon="125.45885">
        <ele>167.77</ele>
      </trkpt>
      <trkpt lat="7.03431" lon="125.45889">
        <ele>165.99</ele>
      </trkpt>
      <trkpt lat="7.03427" lon="125.45895">
        <ele>163.74</ele>
      </trkpt>
      <trkpt lat="7.03419" lon="125.45902">
        <ele>161.27</ele>
      </trkpt>
      <trkpt lat="7.03417" lon="125.45906">
        <ele>160.07</ele>
      </trkpt>
      <trkpt lat="7.03417" lon="125.45907">
        <ele>159.78</ele>
      </trkpt>
      <trkpt lat="7.03408" lon="125.45924">
        <ele>154.02</ele>
      </trkpt>
      <trkpt lat="7.03406" lon="125.4593">
        <ele>152.27</ele>
      </trkpt>
      <trkpt lat="7.03404" lon="125.45932">
        <ele>151.67</ele>
      </trkpt>
      <trkpt lat="7.03402" lon="125.45939">
        <ele>149.88</ele>
      </trkpt>
      <trkpt lat="7.03401" lon="125.45944">
        <ele>148.67</ele>
      </trkpt>
      <trkpt lat="7.03399" lon="125.45948">
        <ele>148.04</ele>
      </trkpt>
      <trkpt lat="7.03398" lon="125.45952">
        <ele>147.4</ele>
      </trkpt>
      <trkpt lat="7.03395" lon="125.45958">
        <ele>146.45</ele>
      </trkpt>
      <trkpt lat="7.03392" lon="125.45968">
        <ele>144.74</ele>
      </trkpt>
      <trkpt lat="7.03389" lon="125.45973">
        <ele>143.83</ele>
      </trkpt>
      <trkpt lat="7.03386" lon="125.45977">
        <ele>143.63</ele>
      </trkpt>
      <trkpt lat="7.03384" lon="125.45983">
        <ele>142.86</ele>
      </trkpt>
      <trkpt lat="7.03383" lon="125.45987">
        <ele>142.31</ele>
      </trkpt>
      <trkpt lat="7.03382" lon="125.45989">
        <ele>142.16</ele>
      </trkpt>
      <trkpt lat="7.03382" lon="125.45989">
        <ele>142.16</ele>
      </trkpt>
      <trkpt lat="7.03382" lon="125.45992">
        <ele>141.57</ele>
      </trkpt>
      <trkpt lat="7.0338" lon="125.45995">
        <ele>141.52</ele>
      </trkpt>
      <trkpt lat="7.03374" lon="125.46">
        <ele>142.29</ele>
      </trkpt>
      <trkpt lat="7.03371" lon="125.46004">
        <ele>142.35</ele>
      </trkpt>
      <trkpt lat="7.03367" lon="125.46009">
        <ele>142.31</ele>
      </trkpt>
      <trkpt lat="7.03363" lon="125.46014">
        <ele>142.07</ele>
      </trkpt>
      <trkpt lat="7.03359" lon="125.46019">
        <ele>141.75</ele>
      </trkpt>
      <trkpt lat="7.03356" lon="125.46024">
        <ele>141.35</ele>
      </trkpt>
      <trkpt lat="7.03352" lon="125.46029">
        <ele>141.58</ele>
      </trkpt>
      <trkpt lat="7.03349" lon="125.46034">
        <ele>142.2</ele>
      </trkpt>
      <trkpt lat="7.03346" lon="125.46039">
        <ele>142.69</ele>
      </trkpt>
      <trkpt lat="7.03343" lon="125.46044">
        <ele>143.07</ele>
      </trkpt>
      <trkpt lat="7.03341" lon="125.4605">
        <ele>143.05</ele>
      </trkpt>
      <trkpt lat="7.03338" lon="125.46055">
        <ele>143.21</ele>
      </trkpt>
      <trkpt lat="7.03338" lon="125.4606">
        <ele>143.93</ele>
      </trkpt>
      <trkpt lat="7.03337" lon="125.46062">
        <ele>144.47</ele>
      </trkpt>
      <trkpt lat="7.03337" lon="125.46065">
        <ele>145.0</ele>
      </trkpt>
    </trkseg>
  </trk>
</gpx>
